satname,norad_id,inclination_deg,eccentricity,mean_motion_rev_per_day,perigee_km,apogee_km,l1,l2
STARLINK-1297,45395,53.0515,0.0002931,15.48403576,419.4027181616102,423.3886042075965,1 45395U 20019AM  26038.92163186  .00109542  00000+0  20126-2 0  9996,2 45395  53.0515 273.7825 0002931 127.7359 232.3914 15.48403576324792
STARLINK-1307,45397,53.0549,0.0001279,15.45986625,427.61004531810886,429.3511781031848,1 45397U 20019AP  26038.94021366  .00023963  00000+0  49079-3 0  9994,2 45397  53.0549 273.2817 0001279 125.1137 234.9989 15.45986625325448
STARLINK-1255,45399,53.0444,0.0006797,15.46346585,422.798530200138,432.05001019084193,1 45399U 20019AR  26038.88052259  .00090598  00000+0  17922-2 0  9993,2 45399  53.0444 245.5861 0006797 138.0652 222.0876 15.46346585325810
STARLINK-1260,45404,53.1603,0.0001038,15.30204238,474.49103891310006,475.9137921757665,1 45404U 20019AW  26038.91419358  .00013482  00000+0  46643-3 0  9991,2 45404  53.1603 267.5430 0001038  81.8084 278.3035 15.30204238325416
STARLINK-1263,45405,53.1568,0.000118,15.29357743,476.92205865353117,478.5400435135871,1 45405U 20019AX  26038.90230327 -.00000641  00000+0 -98724-5 0  9992,2 45405  53.1568 267.6250 0001180  85.0515 275.0621 15.29357743325414
STARLINK-1265,45406,53.1557,0.0001203,15.29357611,476.90668459961853,478.55620654762333,1 45406U 20019AY  26038.91661985  .00003632  00000+0  13814-3 0  9998,2 45406  53.1557 267.6306 0001203  93.4485 266.6653 15.29357611325415
STARLINK-1278,45408,53.0484,0.000545,15.49916292,413.2673849712728,420.674052384632,1 45408U 20019BA  26038.91634408  .00092503  00000+0  16159-2 0  9999,2 45408  53.0484 273.8650 0005450  95.4057 264.7572 15.49916292325339
STARLINK-1296,45412,53.16,0.000126,15.30159547,474.4723198665906,476.19939502666693,1 45412U 20019BE  26038.91667824  .00000388  00000+0  25258-4 0  9994,2 45412  53.1600 267.5398 0001260 104.3958 286.8107 15.30159547  5694
STARLINK-1298,45413,53.04,0.0005276,15.81473776,322.73492391250875,329.8094164688946,1 45413U 20019BF  26038.91667824  .00274846  00000+0  13144-2 0  9996,2 45413  53.0400 205.1875 0005276 220.7779 142.0981 15.81473776  6025
STARLINK-1309,45414,53.0699,9.39e-05,15.47672673,422.89757783924415,424.1749320765257,1 45414U 20019BG  26038.91667824  .00038856  00000+0  74443-3 0  9996,2 45414  53.0699 266.8106 0000939  99.6967 138.1139 15.47672673  5838
STARLINK-1316,45415,53.1601,0.0001616,15.30233232,474.0083607931656,476.2233321131398,1 45415U 20019BH  26038.89101679  .00022014  00000+0  75241-3 0  9991,2 45415  53.1601 267.7095 0001616 114.6897 245.4272 15.30233232325430
STARLINK-1318,45416,53.0358,0.0005232,15.90785437,296.58969943113243,303.5777896182017,1 45416U 20019BJ  26038.91667824  .00445918  86520-4  14062-2 0  9995,2 45416  53.0358 191.5263 0005232 281.9659 189.8165 15.90785437  5906
STARLINK-1286,45417,53.0491,0.0002265,15.48641295,419.1598805033218,422.2397535814416,1 45417U 20019BK  26038.93997756  .00034494  00000+0  64020-3 0  9995,2 45417  53.0491 273.4129 0002265  74.6525 285.4733 15.48641295325611
STARLINK-1308,45419,53.0558,0.0002451,15.42611743,436.73381035297007,440.07527901817593,1 45419U 20019BM  26038.89684129  .00027965  00000+0  63994-3 0  9993,2 45419  53.0558 294.3748 0002451 106.8924 253.2350 15.42611743325060
STARLINK-1329,45531,53.0532,0.0007278,15.5011318,411.45025770993925,421.34037895250185,1 45531U 20025A   26038.91667824  .00169180  00000+0  28987-2 0  9999,2 45531  53.0532 224.8801 0007278 152.0092 236.1081 15.50113180  5940
STARLINK-1338,45532,53.0518,0.0005185,15.48827083,416.63119275939425,423.6810227121168,1 45532U 20025B   26038.91667824  .00179868  00000+0  32209-2 0  9996,2 45532  53.0518 227.9843 0005185 170.8095  13.4219 15.48827083  5581
STARLINK-1350,45535,53.072,0.0001106,15.35287602,459.3100657971245,460.82267638280973,1 45535U 20025E   26038.59321553  .00017697  00000+0  51885-3 0  9992,2 45535  53.0720 174.3974 0001106 109.1207 250.9915 15.35287602321538
STARLINK-1362,45538,53.1464,0.0001778,15.27201476,482.96264671427343,485.4028876234779,1 45538U 20025H   26038.91667824  .01823454  00000+0  61470-1 0  9991,2 45538  53.1464 239.2001 0001778  73.3127 219.0135 15.27201476  5789
STARLINK-1368,45540,53.1256,0.0001397,15.23172603,495.3178849479891,497.238596566257,1 45540U 20025K   26038.91667824  .00103067  00000+0  42590-2 0  9997,2 45540  53.1256 239.4250 0001397 113.8640 184.9079 15.23172603  5733
STARLINK-1371,45542,53.0522,0.0004707,15.43311752,433.1356004215413,439.55075205945377,1 45542U 20025M   26038.72725626  .00121572  00000+0  26537-2 0  9997,2 45542  53.0522 232.0478 0004707 157.4236 202.6977 15.43311752320708
STARLINK-1372,45543,53.1562,0.0001503,15.29326191,476.7948966363165,478.855798918059,1 45543U 20025N   26038.91667824  .00028073  00000+0  98239-3 0  9995,2 45543  53.1562 239.3064 0001503 102.7309 220.5850 15.29326191  5739
STARLINK-1373,45544,53.053,0.0003541,15.44966339,429.0656958143891,433.88826443511334,1 45544U 20025P   26038.80301524  .00140234  00000+0  28864-2 0  9996,2 45544  53.0530 231.9262 0003541 190.6103 169.4828 15.44966339320719
STARLINK-1294,45551,53.0361,0.0007756,15.88214467,302.103632499945,312.47406507658525,1 45551U 20025W   26038.91667824  .00282168  00000+0  97501-3 0  9992,2 45551  53.0361 127.4626 0007756 351.4945 247.7565 15.88214467  6046
STARLINK-1327,45555,53.0507,0.0001626,15.48112585,421.14194143499844,423.3534265342296,1 45555U 20025AA  26038.91667824  .00179068  00000+0  32889-2 0  9997,2 45555  53.0507 209.7125 0001626 243.9558 307.6855 15.48112585  5888
STARLINK-1356,45564,53.0539,0.0001286,15.40905226,442.5591368915548,444.3136455677786,1 45564U 20025AK  26038.74228112  .00142838  00000+0  33684-2 0  9990,2 45564  53.0539 216.0451 0001286 255.8238 104.2623 15.40905226320928
STARLINK-1357,45565,53.055,0.000125,15.49458894,417.458367853249,419.15747908411595,1 45565U 20025AL  26038.91667824  .00142253  00000+0  25060-2 0  9997,2 45565  53.0550 181.3786 0001250 202.8645 212.6548 15.49458894  5699
STARLINK-1361,45567,53.0535,8.33e-05,15.4179714,440.2373122961335,441.37334808834294,1 45567U 20025AN  26038.91667824  .00162191  00000+0  37025-2 0  9996,2 45567  53.0535 215.6694 0000833 240.4284  40.1503 15.41797140  5839
STARLINK-1363,45568,53.0453,0.000445,15.68663771,359.7226388237277,365.72200361961495,1 45568U 20025AP  26038.91667824  .00188613  00000+0  15931-2 0  9996,2 45568  53.0453 185.6077 0004450 324.8910 128.7929 15.68663771  5872
STARLINK-1366,45569,53.0457,0.0004281,15.68397108,360.6002763593042,366.37245428469305,1 45569U 20025AQ  26038.91667824  .00186515  00000+0  15932-2 0  9997,2 45569  53.0457 186.2602 0004281 316.8752 110.4407 15.68397108  5973
STARLINK-1376,45570,53.1602,0.0001088,15.29352965,476.9994104669968,478.4912504621061,1 45570U 20025AR  26038.72336503  .00002531  00000+0  10001-3 0  9993,2 45570  53.1602 216.8169 0001088  92.2949 267.8176 15.29352965320914
STARLINK-1320,45572,53.05,0.0006837,15.62480155,375.87465763175805,385.1164117597009,1 45572U 20025AT  26038.91667824  .00106814  00000+0  11684-2 0  9995,2 45572  53.0500 131.9943 0006837 293.5095 331.8686 15.62480155  5923
STARLINK-1321,45573,53.0511,0.000171,15.4323169,435.4135454127363,437.7441782374808,1 45573U 20025AU  26038.91667824  .00218472  00000+0  47155-2 0  9992,2 45573  53.0511 200.4399 0001710 195.6309 329.0579 15.43231690  5925
STARLINK-1331,45578,53.0825,0.0001357,15.44006713,433.3737664750988,435.22266139215935,1 45578U 20025AZ  26038.91667824  .00074334  00000+0  15987-2 0  9992,2 45578  53.0825 207.1094 0001357  81.2660  37.5312 15.44006713  5823
STARLINK-1333,45580,53.159,0.0001051,15.30198185,474.50020081546336,475.9407765595861,1 45580U 20025BB  26038.77919831  .00008209  00000+0  28900-3 0  9995,2 45580  53.1590 216.7354 0001051  93.6613 266.4508 15.30198185320928
STARLINK-1335,45581,53.0556,0.0001801,15.06397178,545.9729501423599,548.4674638083125,1 45581U 20025BC  26038.74103311  .00000693  00000+0  65461-4 0  9994,2 45581  53.0556 211.0637 0001801  86.3803 273.7392 15.06397178320990
STARLINK-1337,45582,53.0548,0.0001133,15.53252081,406.469595368495,408.0071614292392,1 45582U 20025BD  26038.91667824  .00120480  00000+0  18602-2 0  9998,2 45582  53.0548 205.7882 0001133  76.7428 174.0217 15.53252081  5789
STARLINK-1347,45586,53.0475,0.0003581,15.48356794,419.0976593707601,423.9675827533638,1 45586U 20025BH  26038.91667824  .00115346  00000+0  21205-2 0  9990,2 45586  53.0475 172.6048 0003581 263.7071 110.4239 15.48356794  5844
STARLINK-1364,45589,53.0531,0.0002781,15.44405318,431.2317759305224,435.02020040454136,1 45589U 20025BL  26038.91667824  .00138233  00000+0  29010-2 0  9995,2 45589  53.0531 205.3873 0002781 289.4915 148.8042 15.44405318  5843
STARLINK-1365,45590,53.0537,0.0001284,15.42439099,438.0378727239422,439.78849121067105,1 45590U 20025BM  26038.82007831  .00021710  00000+0  50221-3 0  9993,2 45590  53.0537 235.4777 0001284 153.7707 206.3363 15.42439099320675
STARLINK-1443,45660,53.0558,0.0001144,15.06397089,546.4282188527013,548.0127406440679,1 45660U 20035D   26038.76774830  .00000888  00000+0  78505-4 0  9994,2 45660  53.0558 200.9439 0001144  83.5386 276.5733 15.06397089314222
STARLINK-1446,45663,53.0246,0.0003042,15.41530643,439.5166437543012,443.66576639426785,1 45663U 20035G   26038.54699461  .00025143  00000+0  59758-3 0  9998,2 45663  53.0246 142.4101 0003042 158.6676 201.4455 15.41530643315021
STARLINK-1448,45665,53.053,0.0002879,15.46408134,425.2844199319743,429.2029581327197,1 45665U 20035J   26038.91667824  .00131674  00000+0  25832-2 0  9991,2 45665  53.0530 195.4283 0002879 333.3475  56.9391 15.46408134  5712
STARLINK-1451,45668,53.0537,0.000277,15.08421308,539.1068514735771,542.9400663678189,1 45668U 20035M   26038.68241820  .00034825  00000+0  22203-2 0  9991,2 45668  53.0537 201.3675 0002770 160.7523 199.3572 15.08421308314217
